NORAD_CAT_ID,OBJECT_NAME,OBJECT_TYPE,EPOCH,MEAN_MOTION,ECCENTRICITY,INCLINATION,RA_OF_ASC_NODE,ARG_OF_PERICENTER,MEAN_ANOMALY,BSTAR,MEAN_MOTION_DOT,MEAN_MOTION_DDOT,TLE_LINE0,TLE_LINE1,TLE_LINE2,SEMIMAJOR_AXIS,PERIOD,APOGEE,PERIGEE,DECAYED
54774.0,STARLINK-5454,PAYLOAD,2024-08-04 10:27:40,15.08845625,0.000147,53.2175,122.6374,88.4649,271.6512,0.00018796,2.705e-05,0.0,0 STARLINK-5454,1 54774U 22175S   24217.43589007  .00002705  00000-0  18796-3 0  9994,2 54774  53.2175 122.6374 0001470  88.4649 271.6512 15.08845625 90072,6917.863,95.437,540.745,538.711,0.0
54774.0,STARLINK-5454,PAYLOAD,2024-08-04 21:35:23,15.0883568,0.0001728,53.2177,120.5577,100.4803,259.6383,0.0001328,1.826e-05,0.0,0 STARLINK-5454,1 54774U 22175S   24217.89957987  .00001826  00000-0  13280-3 0  9996,2 54774  53.2177 120.5577 0001728 100.4803 259.6383 15.08835680 90149,6917.894,95.438,540.954,538.563,0.0
54774.0,STARLINK-5454,PAYLOAD,2024-08-04 23:10:46,15.08836225,0.0001722,53.2173,120.2616,95.1627,264.9562,0.00014965,2.094e-05,0.0,0 STARLINK-5454,1 54774U 22175S   24217.96581971  .00002094  00000-0  14965-3 0  9999,2 54774  53.2173 120.2616 0001722  95.1627 264.9562 15.08836225 92319,6917.892,95.438,540.948,538.566,0.0
54774.0,STARLINK-5454,PAYLOAD,2024-08-05 21:26:12,15.08836536,0.0003005,53.2169,116.0975,78.0825,282.0504,-0.0001169,-2.149e-05,0.0,0 STARLINK-5454,1 54774U 22175S   24218.89319483 -.00002149  00000-0 -11690-3 0  9994,2 54774  53.2169 116.0975 0003005  78.0825 282.0504 15.08836536 90298,6917.891,95.438,541.835,537.677,0.0
54774.0,STARLINK-5454,PAYLOAD,2024-08-05 23:01:35,15.08824536,0.0001698,53.2171,115.7984,69.3445,290.773,-0.00018756,-3.271e-05,0.0,0 STARLINK-5454,1 54774U 22175S   24218.95944075 -.00003271  00000-0 -18756-3 0  9999,2 54774  53.2171 115.7984 0001698  69.3445 290.7730 15.08824536 92469,6917.928,95.439,540.967,538.618,0.0
54774.0,STARLINK-5454,PAYLOAD,2024-08-06 00:36:58,15.08828112,0.0001832,53.2166,115.5031,77.6573,282.4624,-0.00018951,-3.302e-05,0.0,0 STARLINK-5454,1 54774U 22175S   24219.02567982 -.00003302  00000-0 -18951-3 0  9998,2 54774  53.2166 115.5031 0001832  77.6573 282.4624 15.08828112 90314,6917.917,95.438,541.049,538.514,0.0
54774.0,STARLINK-5454,PAYLOAD,2024-08-06 16:30:49,15.08839739,0.0001897,53.2181,112.5294,78.4145,281.706,2.6623e-05,1.36e-06,0.0,0 STARLINK-5454,1 54774U 22175S   24219.68806863  .00000136  00000-0  26623-4 0  9990,2 54774  53.2181 112.5294 0001897  78.4145 281.7060 15.08839739 90418,6917.881,95.438,541.059,538.434,0.0
54774.0,STARLINK-5454,PAYLOAD,2024-08-06 21:16:58,15.08843856,0.0001664,53.2161,111.6409,85.7292,274.389,0.00019942,2.887e-05,0.0,0 STARLINK-5454,1 54774U 22175S   24219.88678408  .00002887  00000-0  19942-3 0  9994,2 54774  53.2161 111.6409 0001664  85.7292 274.3890 15.08843856 92607,6917.869,95.437,540.885,538.582,0.0
54774.0,STARLINK-5454,PAYLOAD,2024-08-07 02:03:07,15.08857968,0.0001714,53.2161,110.7477,79.9672,280.1514,0.00075622,0.00011774,0.0,0 STARLINK-5454,1 54774U 22175S   24220.08550299  .00011774  00000-0  75622-3 0  9997,2 54774  53.2161 110.7477 0001714  79.9672 280.1514 15.08857968 90475,6917.825,95.436,540.876,538.505,0.0
54774.0,STARLINK-5454,PAYLOAD,2024-08-07 21:07:45,15.08851439,0.0001635,53.2161,107.1738,103.2898,256.8276,0.00028346,4.228e-05,0.0,0 STARLINK-5454,1 54774U 22175S   24220.88038195  .00004228  00000-0  28346-3 0  9998,2 54774  53.2161 107.1738 0001635 103.2898 256.8276 15.08851439 90593,6917.845,95.437,540.841,538.579,0.0
54774.0,STARLINK-5454,PAYLOAD,2024-08-08 22:33:55,15.0884971,0.0001357,53.2155,102.422,84.4256,275.6891,0.00017091,2.434e-05,0.0,0 STARLINK-5454,1 54774U 22175S   24221.94022124  .00002434  00000-0  17091-3 0  9993,2 54774  53.2155 102.4220 0001357  84.4256 275.6891 15.08849710 90758,6917.851,95.437,540.654,538.777,0.0
54774.0,STARLINK-5454,PAYLOAD,2024-08-09 09:41:36,15.08839609,0.0001534,53.2164,100.3366,111.0504,249.0653,-2.2712e-05,-6.49e-06,0.0,0 STARLINK-5454,1 54774U 22175S   24222.40389956 -.00000649  00000-0 -22712-4 0  9999,2 54774  53.2164 100.3366 0001534 111.0504 249.0653 15.08839609 92980,6917.882,95.438,540.808,538.685,0.0
54774.0,STARLINK-5454,PAYLOAD,2024-08-09 20:49:19,15.08840568,0.0001547,53.2159,98.2557,106.6483,253.4679,0.00011351,1.519e-05,0.0,0 STARLINK-5454,1 54774U 22175S   24222.86758359  .00001519  00000-0  11351-3 0  9997,2 54774  53.2159  98.2557 0001547 106.6483 253.4679 15.08840568 90892,6917.879,95.438,540.814,538.673,0.0
54774.0,STARLINK-5454,PAYLOAD,2024-08-10 01:35:28,15.08848059,0.0001561,53.2169,97.3595,111.6221,248.4938,0.00022538,3.302e-05,0.0,0 STARLINK-5454,1 54774U 22175S   24223.06630023  .00003302  00000-0  22538-3 0  9998,2 54774  53.2169  97.3595 0001561 111.6221 248.4938 15.08848059 93086,6917.856,95.437,540.801,538.641,0.0
54774.0,STARLINK-5454,PAYLOAD,2024-08-10 22:15:29,15.08845001,0.0001507,53.2166,93.498,94.0339,266.0825,0.00015318,2.151e-05,0.0,0 STARLINK-5454,1 54774U 22175S   24223.92742408  .00002151  00000-0  15318-3 0  9993,2 54774  53.2166  93.4980 0001507  94.0339 266.0825 15.08845001 93212,6917.865,95.437,540.773,538.688,0.0
54774.0,STARLINK-5454,PAYLOAD,2024-08-11 01:26:15,15.08852252,0.0001297,53.2156,92.9014,85.4624,274.6516,0.00048837,7.496e-05,0.0,0 STARLINK-5454,1 54774U 22175S   24224.05990248  .00007496  00000-0  48837-3 0  9994,2 54774  53.2156  92.9014 0001297  85.4624 274.6516 15.08852252 91070,6917.843,95.437,540.605,538.811,0.0
54774.0,STARLINK-5454,PAYLOAD,2024-08-11 07:47:48,15.08842937,0.0001262,53.2163,91.7103,92.9185,267.1951,0.00037952,5.758e-05,0.0,0 STARLINK-5454,1 54774U 22175S   24224.32486515  .00005758  00000-0  37952-3 0  9996,2 54774  53.2163  91.7103 0001262  92.9185 267.1951 15.08842937 91115,6917.871,95.437,540.609,538.863,0.0
54774.0,STARLINK-5454,PAYLOAD,2024-08-11 22:06:16,15.08854131,0.0001247,53.2161,89.0325,82.8792,277.2342,0.0004702,7.206e-05,0.0,0 STARLINK-5454,1 54774U 22175S   24224.92102177  .00007206  00000-0  47020-3 0  9998,2 54774  53.2161  89.0325 0001247  82.8792 277.2342 15.08854131 93368,6917.837,95.437,540.565,538.84,0.0
54774.0,STARLINK-5454,PAYLOAD,2024-08-12 07:38:34,15.08854109,0.0001407,53.2166,87.2519,92.3364,267.7789,0.00049349,7.578e-05,0.0,0 STARLINK-5454,1 54774U 22175S   24225.31845814  .00007578  00000-0  49349-3 0  9992,2 54774  53.2166  87.2519 0001407  92.3364 267.7789 15.08854109 93428,6917.837,95.437,540.676,538.729,0.0
54774.0,STARLINK-5454,PAYLOAD,2024-08-13 01:07:48,15.08859697,0.0002143,53.2154,83.982,71.8261,288.2964,0.00030506,4.573e-05,0.0,0 STARLINK-5454,1 54774U 22175S   24226.04709229  .00004573  00000-0  30506-3 0  9999,2 54774  53.2154  83.9820 0002143  71.8261 288.2964 15.08859697 91371,6917.82,95.436,541.168,538.203,0.0
54774.0,STARLINK-5454,PAYLOAD,2024-08-13 13:50:56,15.08803301,0.0001749,53.213,81.6058,86.222,273.8972,-0.000549,-9.006e-05,0.0,0 STARLINK-5454,1 54774U 22175S   24226.57703934 -.00009006  00000-0 -54900-3 0  9996,2 54774  53.2130  81.6058 0001749  86.2220 273.8972 15.08803301 91458,6917.993,95.44,541.068,538.648,0.0
54774.0,STARLINK-5454,PAYLOAD,2024-08-13 21:47:52,15.0880261,0.0001414,53.2161,80.1176,107.9458,252.1688,-0.00055154,-9.046e-05,0.0,0 STARLINK-5454,1 54774U 22175S   24226.90824356 -.00009046  00000-0 -55154-3 0  9991,2 54774  53.2161  80.1176 0001414 107.9458 252.1688 15.08802610 93661,6917.995,95.44,540.838,538.881,0.0
54774.0,STARLINK-5454,PAYLOAD,2024-08-14 07:20:11,15.08826787,0.0001081,53.2163,78.3357,104.8923,255.2189,1.8145e-05,1e-08,0.0,0 STARLINK-5454,1 54774U 22175S   24227.30568306  .00000001  00000-0  18145-4 0  9996,2 54774  53.2163  78.3357 0001081 104.8923 255.2189 15.08826787 91564,6917.921,95.438,540.534,539.038,0.0
54774.0,STARLINK-5454,PAYLOAD,2024-08-14 20:03:15,15.08844873,0.0001273,53.2156,75.9554,90.8735,269.2403,0.00039108,5.942e-05,0.0,0 STARLINK-5454,1 54774U 22175S   24227.83560094  .00005942  00000-0  39108-3 0  9990,2 54774  53.2156  75.9554 0001273  90.8735 269.2403 15.08844873 91645,6917.865,95.437,540.611,538.85,0.0
54774.0,STARLINK-5454,PAYLOAD,2024-08-15 07:10:57,15.08845727,9.09e-05,53.2145,73.8703,115.084,245.0246,0.00059221,9.151e-05,0.0,0 STARLINK-5454,1 54774U 22175S   24228.29928142  .00009151  00000-0  59221-3 0  9997,2 54774  53.2145  73.8703 0000909 115.0840 245.0246 15.08845727 93871,6917.863,95.437,540.357,539.099,0.0
54774.0,STARLINK-5454,PAYLOAD,2024-08-15 19:54:03,15.08844428,0.0001267,53.2149,71.4917,97.2192,262.8944,0.00048562,7.45e-05,0.0,0 STARLINK-5454,1 54774U 22175S   24228.82920437  .00007450  00000-0  48562-3 0  9991,2 54774  53.2149  71.4917 0001267  97.2192 262.8944 15.08844428 91793,6917.867,95.437,540.608,538.855,0.0
54774.0,STARLINK-5454,PAYLOAD,2024-08-15 21:29:26,15.08851109,0.0001634,53.2171,71.1953,92.307,267.811,0.00039761,6.048e-05,0.0,0 STARLINK-5454,1 54774U 22175S   24228.89544073  .00006048  00000-0  39761-3 0  9999,2 54774  53.2171  71.1953 0001634  92.3070 267.8110 15.08851109 93969,6917.846,95.437,540.842,538.581,0.0
54774.0,STARLINK-5454,PAYLOAD,2024-08-16 22:55:35,15.08853525,0.0001605,53.2174,66.4376,89.7317,270.3859,-1.8657e-05,-5.85e-06,0.0,0 STARLINK-5454,1 54774U 22175S   24229.95527174 -.00000585  00000-0 -18657-4 0  9994,2 54774  53.2174  66.4376 0001605  89.7317 270.3859 15.08853525 91961,6917.839,95.437,540.814,538.594,0.0
54774.0,STARLINK-5454,PAYLOAD,2024-08-17 13:14:04,15.08841889,0.000175,53.2134,63.7623,85.1349,274.9843,-4.171e-05,-9.52e-06,0.0,0 STARLINK-5454,1 54774U 22175S   24230.55143673 -.00000952  00000-0 -41710-4 0  9994,2 54774  53.2134  63.7623 0001750  85.1349 274.9843 15.08841889 92052,6917.875,95.437,540.95,538.529,0.0
54774.0,STARLINK-5454,PAYLOAD,2024-08-18 19:26:23,15.08844137,0.0001325,53.2175,58.1126,90.3552,269.7592,0.00024991,3.692e-05,0.0,0 STARLINK-5454,1 54774U 22175S   24231.80999304  .00003692  00000-0  24991-3 0  9996,2 54774  53.2175  58.1126 0001325  90.3552 269.7592 15.08844137 92248,6917.868,95.437,540.649,538.816,0.0
